NORAD_CAT_ID,OBJECT_NAME,OBJECT_TYPE,EPOCH,MEAN_MOTION,ECCENTRICITY,INCLINATION,RA_OF_ASC_NODE,ARG_OF_PERICENTER,MEAN_ANOMALY,BSTAR,MEAN_MOTION_DOT,MEAN_MOTION_DDOT,TLE_LINE0,TLE_LINE1,TLE_LINE2,SEMIMAJOR_AXIS,PERIOD,APOGEE,PERIGEE,DECAYED
54795.0,STARLINK-5436,PAYLOAD,2023-08-02 08:30:33,15.08841066,0.0001268,53.2171,335.173,63.0725,297.0397,8.371e-05,1.045e-05,0.0,0 STARLINK-5436,1 54795U 22175AP  23214.35455852  .00001045  00000-0  83710-4 0  9999,2 54795  53.2171 335.1730 0001268  63.0725 297.0397 15.08841066 34501,6917.877,95.437,540.619,538.865,0.0
54795.0,STARLINK-5436,PAYLOAD,2023-08-02 19:38:15,15.0885413,0.0001017,53.218,333.0898,81.939,278.1717,0.00019558,2.827e-05,0.0,0 STARLINK-5436,1 54795U 22175AP  23214.81823008  .00002827  00000-0  19558-3 0  9999,2 54795  53.2180 333.0898 0001017  81.9390 278.1717 15.08854130 34571,6917.837,95.437,540.406,538.999,0.0
54795.0,STARLINK-5436,PAYLOAD,2023-08-03 08:21:20,15.08837066,9.2e-05,53.2184,330.7149,71.2976,288.8116,4.7543e-05,4.69e-06,0.0,0 STARLINK-5436,1 54795U 22175AP  23215.34815863  .00000469  00000-0  47543-4 0  9994,2 54795  53.2184 330.7149 0000920  71.2976 288.8116 15.08837066 34651,6917.889,95.438,540.391,539.118,0.0
54795.0,STARLINK-5436,PAYLOAD,2023-08-03 13:07:29,15.08846552,0.0001088,53.2178,329.8211,84.4458,275.6658,0.0001738,2.48e-05,0.0,0 STARLINK-5436,1 54795U 22175AP  23215.54687365  .00002480  00000-0  17380-3 0  9990,2 54795  53.2178 329.8211 0001088  84.4458 275.6658 15.08846552 34688,6917.86,95.437,540.478,538.973,0.0
54795.0,STARLINK-5436,PAYLOAD,2023-08-03 19:29:01,15.08856971,0.0001073,53.2176,328.6303,79.3762,280.7351,0.00029099,4.348e-05,0.0,0 STARLINK-5436,1 54795U 22175AP  23215.81182711  .00004348  00000-0  29099-3 0  9990,2 54795  53.2176 328.6303 0001073  79.3762 280.7351 15.08856971 34728,6917.829,95.436,540.436,538.951,0.0
54795.0,STARLINK-5436,PAYLOAD,2023-08-04 12:58:17,15.088319,0.0001199,53.2176,325.3578,87.1899,272.9231,-0.00012214,-2.231e-05,0.0,0 STARLINK-5436,1 54795U 22175AP  23216.54047917 -.00002231  00000-0 -12214-3 0  9991,2 54795  53.2176 325.3578 0001199  87.1899 272.9231 15.08831900 34830,6917.905,95.438,540.6,538.941,0.0
54795.0,STARLINK-5436,PAYLOAD,2023-08-05 11:13:40,15.08851544,0.000113,53.2164,321.1961,83.6456,276.4664,0.00044737,6.841e-05,0.0,0 STARLINK-5436,1 54795U 22175AP  23217.46783549  .00006841  00000-0  44737-3 0  9995,2 54795  53.2164 321.1961 0001130  83.6456 276.4664 15.08851544 34972,6917.845,95.437,540.492,538.928,0.0
54795.0,STARLINK-5436,PAYLOAD,2023-08-05 14:24:27,15.08866332,0.0001266,53.2167,320.6011,78.7226,281.3909,0.0011678,0.0001836,0.0,0 STARLINK-5436,1 54795U 22175AP  23217.60031441  .00018360  00000-0  11678-2 0  9994,2 54795  53.2167 320.6011 0001266  78.7226 281.3909 15.08866332 34995,6917.8,95.436,540.541,538.789,0.0
54795.0,STARLINK-5436,PAYLOAD,2023-08-05 23:56:46,15.08823768,0.0001409,53.2157,318.8174,113.9151,246.1989,-0.00089193,-0.00014449,0.0,0 STARLINK-5436,1 54795U 22175AP  23217.99775868 -.00014449  00000-0 -89193-3 0  9998,2 54795  53.2157 318.8174 0001409 113.9151 246.1989 15.08823768 35052,6917.93,95.439,540.77,538.82,0.0
54795.0,STARLINK-5436,PAYLOAD,2023-08-06 23:47:35,15.08817146,0.0001084,53.2156,314.3576,108.9888,251.1222,0.0011901,0.00018691,0.0,0 STARLINK-5436,1 54795U 22175AP  23218.99137985  .00018691  00000-0  11901-2 0  9993,2 54795  53.2156 314.3576 0001084 108.9888 251.1222 15.08817146 35204,6917.95,95.439,540.565,539.065,0.0
54795.0,STARLINK-5436,PAYLOAD,2023-08-08 05:59:54,15.08864607,9.39e-05,53.2151,308.707,101.1657,258.9441,0.001232,0.00019387,0.0,0 STARLINK-5436,1 54795U 22175AP  23220.24993716  .00019387  00000-0  12320-2 0  9995,2 54795  53.2151 308.7070 0000939 101.1657 258.9441 15.08864607 35394,6917.805,95.436,540.32,539.021,0.0
54795.0,STARLINK-5436,PAYLOAD,2023-08-09 09:01:27,15.08853475,0.0001073,53.2147,303.6523,98.5495,261.5618,0.0003074,4.61e-05,0.0,0 STARLINK-5436,1 54795U 22175AP  23221.37600842  .00004610  00000-0  30740-3 0  9995,2 54795  53.2147 303.6523 0001073  98.5495 261.5618 15.08853475 35561,6917.839,95.437,540.446,538.962,0.0
54795.0,STARLINK-5436,PAYLOAD,2023-08-10 10:27:37,15.08848214,0.0001054,53.2159,298.8936,77.3679,282.7431,0.0012987,0.00020446,0.0,0 STARLINK-5436,1 54795U 22175AP  23222.43585069  .00020446  00000-0  12987-2 0  9993,2 54795  53.2159 298.8936 0001054  77.3679 282.7431 15.08848214 35726,6917.855,95.437,540.449,538.991,0.0
54795.0,STARLINK-5436,PAYLOAD,2023-08-10 21:35:19,15.08836538,0.0001132,53.2168,296.8104,86.024,274.0882,0.00024557,3.622e-05,0.0,0 STARLINK-5436,1 54795U 22175AP  23222.89953047  .00003622  00000-0  24557-3 0  9992,2 54795  53.2168 296.8104 0001132  86.0240 274.0882 15.08836538 35796,6917.891,95.438,540.539,538.973,0.0
54795.0,STARLINK-5436,PAYLOAD,2023-08-11 16:39:56,15.08853489,0.0001096,53.2163,293.243,72.5875,287.5237,0.00027806,4.142e-05,0.0,0 STARLINK-5436,1 54795U 22175AP  23223.69440329  .00004142  00000-0  27806-3 0  9993,2 54795  53.2163 293.2430 0001096  72.5875 287.5237 15.08853489 35918,6917.839,95.437,540.462,538.946,0.0
54795.0,STARLINK-5436,PAYLOAD,2023-08-11 21:26:05,15.08842571,2.66e-05,53.2159,292.3508,93.8713,266.2309,3.2457e-05,2.29e-06,0.0,0 STARLINK-5436,1 54795U 22175AP  23223.89312421  .00000229  00000-0  32457-4 0  9997,2 54795  53.2159 292.3508 0000266  93.8713 266.2309 15.08842571 35941,6917.873,95.437,539.922,539.554,0.0
54795.0,STARLINK-5436,PAYLOAD,2023-08-13 16:21:30,15.08848386,0.000111,53.2148,284.3225,83.0725,277.0393,0.00035631,5.389e-05,0.0,0 STARLINK-5436,1 54795U 22175AP  23225.68160576  .00005389  00000-0  35631-3 0  9996,2 54795  53.2148 284.3225 0001110  83.0725 277.0393 15.08848386 36213,6917.855,95.437,540.488,538.952,0.0
54795.0,STARLINK-5436,PAYLOAD,2023-08-14 09:50:45,15.08838956,0.0001076,53.2147,281.048,104.3437,255.7675,5.4694e-05,5.83e-06,0.0,0 STARLINK-5436,1 54795U 22175AP  23226.41024928  .00000583  00000-0  54694-4 0  9990,2 54795  53.2147 281.0480 0001076 104.3437 255.7675 15.08838956 36327,6917.884,95.438,540.493,539.004,0.0
54795.0,STARLINK-5436,PAYLOAD,2023-08-15 14:27:42,15.08844316,0.000113,53.2144,275.698,88.5001,271.612,0.00031094,4.665e-05,0.0,0 STARLINK-5436,1 54795U 22175AP  23227.60257037  .00004665  00000-0  31094-3 0  9994,2 54795  53.2144 275.6980 0001130  88.5001 271.6120 15.08844316 36508,6917.867,95.437,540.514,538.95,0.0
54795.0,STARLINK-5436,PAYLOAD,2023-08-16 09:32:20,15.08840283,0.00013,53.2149,272.1288,88.3045,271.8096,0.00013627,1.882e-05,0.0,0 STARLINK-5436,1 54795U 22175AP  23228.39745380  .00001882  00000-0  13627-3 0  9994,2 54795  53.2149 272.1288 0001300  88.3045 271.8096 15.08840283 36627,6917.88,95.438,540.644,538.845,0.0
54795.0,STARLINK-5436,PAYLOAD,2023-08-17 14:09:15,15.08847509,0.0001309,53.216,266.7757,97.9238,262.1902,8.1992e-05,1.017e-05,0.0,0 STARLINK-5436,1 54795U 22175AP  23229.58976707  .00001017  00000-0  81992-4 0  9996,2 54795  53.2160 266.7757 0001309  97.9238 262.1902 15.08847509 36806,6917.857,95.437,540.628,538.817,0.0
54795.0,STARLINK-5436,PAYLOAD,2023-08-18 02:52:21,15.08835146,0.0001399,53.2165,264.3939,104.0362,256.0786,3.7065e-05,3.02e-06,0.0,0 STARLINK-5436,1 54795U 22175AP  23230.11969610  .00000302  00000-0  37065-4 0  9990,2 54795  53.2165 264.3939 0001399 104.0362 256.0786 15.08835146 36888,6917.895,95.438,540.728,538.792,0.0
54795.0,STARLINK-5436,PAYLOAD,2023-08-18 12:24:40,15.08840979,0.0001388,53.2172,262.617,100.6241,259.4907,4.5748e-05,4.4e-06,0.0,0 STARLINK-5436,1 54795U 22175AP  23230.51713287  .00000440  00000-0  45748-4 0  9991,2 54795  53.2172 262.6170 0001388 100.6241 259.4907 15.08840979 36949,6917.877,95.437,540.703,538.782,0.0
54795.0,STARLINK-5436,PAYLOAD,2023-08-20 08:55:28,15.08835401,0.0001375,53.2166,254.289,89.2514,270.8635,4.9008e-05,4.92e-06,0.0,0 STARLINK-5436,1 54795U 22175AP  23232.37186173  .00000492  00000-0  49008-4 0  9995,2 54795  53.2166 254.2890 0001375  89.2514 270.8635 15.08835401 37220,6917.894,95.438,540.711,538.808,0.0
54795.0,STARLINK-5436,PAYLOAD,2023-08-21 08:46:15,15.08844161,0.0001314,53.2155,249.8276,88.7583,271.356,0.00012616,1.721e-05,0.0,0 STARLINK-5436,1 54795U 22175AP  23233.36545552  .00001721  00000-0  12616-3 0  9995,2 54795  53.2155 249.8276 0001314  88.7583 271.3560 15.08844161 37371,6917.868,95.437,540.642,538.824,0.0
54795.0,STARLINK-5436,PAYLOAD,2023-08-22 00:40:07,15.0883864,0.0001291,53.2147,246.8546,88.9572,271.1568,9.5707e-05,1.236e-05,0.0,0 STARLINK-5436,1 54795U 22175AP  23234.02786012  .00001236  00000-0  95707-4 0  9991,2 54795  53.2147 246.8546 0001291  88.9572 271.1568 15.08838640 37475,6917.885,95.438,540.643,538.856,0.0
54795.0,STARLINK-5436,PAYLOAD,2023-08-23 10:03:13,15.08829799,0.0001381,53.215,240.6069,116.3605,243.7529,-0.00011725,-2.153e-05,0.0,0 STARLINK-5436,1 54795U 22175AP  23235.41891189 -.00002153  00000-0 -11725-3 0  9995,2 54795  53.2150 240.6069 0001381 116.3605 243.7529 15.08829799 37684,6917.912,95.438,540.732,538.821,0.0
54795.0,STARLINK-5436,PAYLOAD,2023-08-24 09:54:01,15.08832298,0.0001287,53.215,236.1469,98.0224,262.0914,-9.6765e-06,-4.42e-06,0.0,0 STARLINK-5436,1 54795U 22175AP  23236.41251492 -.00000442  00000-0 -96765-5 0  9991,2 54795  53.2150 236.1469 0001287  98.0224 262.0914 15.08832298 39992,6917.904,95.438,540.659,538.879,0.0
54795.0,STARLINK-5436,PAYLOAD,2023-08-25 00:12:29,15.08826157,0.0001358,53.215,233.4715,95.1304,264.9843,0.00015782,2.224e-05,0.0,0 STARLINK-5436,1 54795U 22175AP  23237.00867596  .00002224  00000-0  15782-3 0  9991,2 54795  53.2150 233.4715 0001358  95.1304 264.9843 15.08826157 37922,6917.923,95.438,540.727,538.848,0.0
54795.0,STARLINK-5436,PAYLOAD,2023-08-25 11:20:11,15.08834109,0.0001428,53.2152,231.3903,97.0512,263.0643,0.00021482,3.132e-05,0.0,0 STARLINK-5436,1 54795U 22175AP  23237.47235381  .00003132  00000-0  21482-3 0  9996,2 54795  53.2152 231.3903 0001428  97.0512 263.0643 15.08834109 40153,6917.898,95.438,540.751,538.776,0.0
